{"type": "FeatureCollection", "features": [ {"type": "Feature", "properties": {"norad_id": 39620, "name": "COSMOS 2492 (754)", "group": "gnss", "lat": -49.41349670695932, "lon": -71.834041024749, "alt_km": 19099.697719034102, "timestamp": "2025-12-06T09:34:17.156524+00:00", "meta": {"OBJECT_NAME": "COSMOS 2492 (754)", "OBJECT_ID": "2014-012A", "EPOCH": "2025-12-02T17:14:30.403680", "MEAN_MOTION": 2.13103072, "ECCENTRICITY": 0.00141646, "INCLINATION": 65.4134, "RA_OF_ASC_NODE": 320.6107, "ARG_OF_PERICENTER": 311.0276, "MEAN_ANOMALY": 48.8557, "EPHEMERIS_TYPE": 0, "CLASSIFICATION_TYPE": "U", "NORAD_CAT_ID": 39620, "ELEMENT_SET_NO": 999, "REV_AT_EPOCH": 9105, "BSTAR": 0, "MEAN_MOTION_DOT": -3.6e-07, "MEAN_MOTION_DDOT": 0}, "tle": {"line1": "1 39620U 14012A   25336.71840745 -.00000036  00000+0  00000+0 0  9991", "line2": "2 39620  65.4134 320.6107 0014164 311.0276  48.8557  2.13103072 91051"}}, "geometry": {"type": "Point", "coordinates": [-71.834041024749, -49.41349670695932]}}, {"type": "Feature", "properties": {"norad_id": 39635, "name": "IRNSS-1B", "group": "gnss", "lat": 14.047264261528264, "lon": -89.259317928826, "alt_km": 35849.92983815096, "timestamp": "2025-12-06T09:34:17.156537+00:00", "meta": {"OBJECT_NAME": "IRNSS-1B", "OBJECT_ID": "2014-017A", "EPOCH": "2025-12-04T19:28:38.496288", "MEAN_MOTION": 1.00275997, "ECCENTRICITY": 0.0017633, "INCLINATION": 28.8387, "RA_OF_ASC_NODE": 243.7276, "ARG_OF_PERICENTER": 183.5453, "MEAN_ANOMALY": 353.8193, "EPHEMERIS_TYPE": 0, "CLASSIFICATION_TYPE": "U", "NORAD_CAT_ID": 39635, "ELEMENT_SET_NO": 999, "REV_AT_EPOCH": 4284, "BSTAR": 0, "MEAN_MOTION_DOT": 1.26e-06, "MEAN_MOTION_DDOT": 0}, "tle": {"line1": "1 39635U 14017A   25338.81155667  .00000126  00000+0  00000+0 0  9996", "line2": "2 39635  28.8387 243.7276 0017633 183.5453 353.8193  1.00275997 42844"}}, "geometry": {"type": "Point", "coordinates": [-89.259317928826, 14.047264261528264]}}, {"type": "Feature", "properties": {"norad_id": 39727, "name": "LUCH 5V (SDCM/PRN 141)", "group": "gnss", "lat": -4.128501653435607, "lon": -46.25801212361465, "alt_km": 35772.27211573022, "timestamp": "2025-12-06T09:34:17.156549+00:00", "meta": {"OBJECT_NAME": "LUCH 5V (SDCM/PRN 141)", "OBJECT_ID": "2014-023A", "EPOCH": "2025-12-05T19:17:03.874848", "MEAN_MOTION": 1.00271041, "ECCENTRICITY": 0.0004595, "INCLINATION": 4.6511, "RA_OF_ASC_NODE": 71.5979, "ARG_OF_PERICENTER": 201.0776, "MEAN_ANOMALY": 186.2233, "EPHEMERIS_TYPE": 0, "CLASSIFICATION_TYPE": "U", "NORAD_CAT_ID": 39727, "ELEMENT_SET_NO": 999, "REV_AT_EPOCH": 4242, "BSTAR": 0, "MEAN_MOTION_DOT": -2.62e-06, "MEAN_MOTION_DDOT": 0}, "tle": {"line1": "1 39727U 14023A   25339.80351707 -.00000262  00000+0  00000+0 0  9990", "line2": "2 39727   4.6511  71.5979 0004595 201.0776 186.2233  1.00271041 42424"}}, "geometry": {"type": "Point", "coordinates": [-46.25801212361465, -4.128501653435607]}}, {"type": "Feature", "properties": {"norad_id": 39741, "name": "GPS BIIF-6  (PRN 06)", "group": "gnss", "lat": -55.60743253494526, "lon": -95.66107855132009, "alt_km": 20108.35386048431, "timestamp": "2025-12-06T09:34:17.156560+00:00", "meta": {"OBJECT_NAME": "GPS BIIF-6  (PRN 06)", "OBJECT_ID": "2014-026A", "EPOCH": "2025-12-05T12:19:36.956352", "MEAN_MOTION": 2.00561711, "ECCENTRICITY": 0.00389807, "INCLINATION": 56.5863, "RA_OF_ASC_NODE": 339.0576, "ARG_OF_PERICENTER": 318.2781, "MEAN_ANOMALY": 41.4416, "EPHEMERIS_TYPE": 0, "CLASSIFICATION_TYPE": "U", "NORAD_CAT_ID": 39741, "ELEMENT_SET_NO": 999, "REV_AT_EPOCH": 8465, "BSTAR": 0, "MEAN_MOTION_DOT": -7.5e-07, "MEAN_MOTION_DDOT": 0}, "tle": {"line1": "1 39741U 14026A   25339.51362218 -.00000075  00000+0  00000+0 0  9998", "line2": "2 39741  56.5863 339.0576 0038980 318.2781  41.4416  2.00561711 84656"}}, "geometry": {"type": "Point", "coordinates": [-95.66107855132009, -55.60743253494526]}}, {"type": "Feature", "properties": {"norad_id": 40001, "name": "COSMOS 2500 (755)", "group": "gnss", "lat": 7.94518795277946, "lon": 136.56133827607061, "alt_km": 19114.967262343132, "timestamp": "2025-12-06T09:34:17.156572+00:00", "meta": {"OBJECT_NAME": "COSMOS 2500 (755)", "OBJECT_ID": "2014-032A", "EPOCH": "2025-12-04T07:09:49.504896", "MEAN_MOTION": 2.13106037, "ECCENTRICITY": 0.0008267, "INCLINATION": 65.3482, "RA_OF_ASC_NODE": 320.3199, "ARG_OF_PERICENTER": 219.122, "MEAN_ANOMALY": 140.8171, "EPHEMERIS_TYPE": 0, "CLASSIFICATION_TYPE": "U", "NORAD_CAT_ID": 40001, "ELEMENT_SET_NO": 999, "REV_AT_EPOCH": 8930, "BSTAR": 0, "MEAN_MOTION_DOT": -4.5e-07, "MEAN_MOTION_DDOT": 0}, "tle": {"line1": "1 40001U 14032A   25338.29848964 -.00000045  00000+0  00000+0 0  9994", "line2": "2 40001  65.3482 320.3199 0008267 219.1220 140.8171  2.13106037 89307"}}, "geometry": {"type": "Point", "coordinates": [136.56133827607061, 7.94518795277946]}}, {"type": "Feature", "properties": {"norad_id": 40105, "name": "GPS BIIF-7  (PRN 09)", "group": "gnss", "lat": -29.183931767250098, "lon": -61.05039084386775, "alt_km": 20195.02318770338, "timestamp": "2025-12-06T09:34:17.156583+00:00", "meta": {"OBJECT_NAME": "GPS BIIF-7  (PRN 09)", "OBJECT_ID": "2014-045A", "EPOCH": "2025-12-05T14:26:16.975968", "MEAN_MOTION": 2.00571979, "ECCENTRICITY": 0.00328896, "INCLINATION": 55.2248, "RA_OF_ASC_NODE": 96.1837, "ARG_OF_PERICENTER": 119.6741, "MEAN_ANOMALY": 240.6258, "EPHEMERIS_TYPE": 0, "CLASSIFICATION_TYPE": "U", "NORAD_CAT_ID": 40105, "ELEMENT_SET_NO": 999, "REV_AT_EPOCH": 8219, "BSTAR": 0, "MEAN_MOTION_DOT": -1.2e-07, "MEAN_MOTION_DDOT": 0}, "tle": {"line1": "1 40105U 14045A   25339.60158537 -.00000012  00000+0  00000+0 0  9993", "line2": "2 40105  55.2248  96.1837 0032889 119.6741 240.6258  2.00571979 82198"}}, "geometry": {"type": "Point", "coordinates": [-61.05039084386775, -29.183931767250098]}}, {"type": "Feature", "properties": {"norad_id": 40128, "name": "GSAT0201 (GALILEO 5)", "group": "gnss", "lat": -22.117112641062114, "lon": -99.30704739283524, "alt_km": 25762.039933952998, "timestamp": "2025-12-06T09:34:17.156597+00:00", "meta": {"OBJECT_NAME": "GSAT0201 (GALILEO 5)", "OBJECT_ID": "2014-050A", "EPOCH": "2025-12-03T05:25:23.717280", "MEAN_MOTION": 1.85519443, "ECCENTRICITY": 0.16470313, "INCLINATION": 49.088, "RA_OF_ASC_NODE": 281.4514, "ARG_OF_PERICENTER": 171.9194, "MEAN_ANOMALY": 191.1354, "EPHEMERIS_TYPE": 0, "CLASSIFICATION_TYPE": "U", "NORAD_CAT_ID": 40128, "ELEMENT_SET_NO": 999, "REV_AT_EPOCH": 7468, "BSTAR": 0, "MEAN_MOTION_DOT": -5.9e-07, "MEAN_MOTION_DDOT": 0}, "tle": {"line1": "1 40128U 14050A   25337.22596895 -.00000059  00000+0  00000+0 0  9994", "line2": "2 40128  49.0880 281.4514 1647031 171.9194 191.1354  1.85519443 74684"}}, "geometry": {"type": "Point", "coordinates": [-99.30704739283524, -22.117112641062114]}}, {"type": "Feature", "properties": {"norad_id": 40129, "name": "GSAT0202 (GALILEO 6)", "group": "gnss", "lat": 27.64924411050734, "lon": 73.41999265685835, "alt_km": 17449.779836227943, "timestamp": "2025-12-06T09:34:17.156608+00:00", "meta": {"OBJECT_NAME": "GSAT0202 (GALILEO 6)", "OBJECT_ID": "2014-050B", "EPOCH": "2025-12-02T22:38:17.581056", "MEAN_MOTION": 1.8552031, "ECCENTRICITY": 0.1647571, "INCLINATION": 49.1042, "RA_OF_ASC_NODE": 280.5465, "ARG_OF_PERICENTER": 172.6616, "MEAN_ANOMALY": 190.1192, "EPHEMERIS_TYPE": 0, "CLASSIFICATION_TYPE": "U", "NORAD_CAT_ID": 40129, "ELEMENT_SET_NO": 999, "REV_AT_EPOCH": 7684, "BSTAR": 0, "MEAN_MOTION_DOT": -5.9e-07, "MEAN_MOTION_DDOT": 0}, "tle": {"line1": "1 40129U 14050B   25336.94325904 -.00000059  00000+0  00000+0 0  9994", "line2": "2 40129  49.1042 280.5465 1647571 172.6616 190.1192  1.85520310 76841"}}, "geometry": {"type": "Point", "coordinates": [73.41999265685835, 27.64924411050734]}}, {"type": "Feature", "properties": {"norad_id": 40269, "name": "IRNSS-1C", "group": "gnss", "lat": -2.9467070327012763, "lon": -58.27427946515734, "alt_km": 35854.777924915485, "timestamp": "2025-12-06T09:34:17.156620+00:00", "meta": {"OBJECT_NAME": "IRNSS-1C", "OBJECT_ID": "2014-061A", "EPOCH": "2025-12-05T22:01:51.844224", "MEAN_MOTION": 1.00268822, "ECCENTRICITY": 0.0017832, "INCLINATION": 6.0235, "RA_OF_ASC_NODE": 92.7587, "ARG_OF_PERICENTER": 2.6252, "MEAN_ANOMALY": 32.995, "EPHEMERIS_TYPE": 0, "CLASSIFICATION_TYPE": "U", "NORAD_CAT_ID": 40269, "ELEMENT_SET_NO": 999, "REV_AT_EPOCH": 4075, "BSTAR": 0, "MEAN_MOTION_DOT": -1.54e-06, "MEAN_MOTION_DDOT": 0}, "tle": {"line1": "1 40269U 14061A   25339.91796116 -.00000154  00000+0  00000+0 0  9994", "line2": "2 40269   6.0235  92.7587 0017832   2.6252  32.9950  1.00268822 40758"}}, "geometry": {"type": "Point", "coordinates": [-58.27427946515734, -2.9467070327012763]}}, {"type": "Feature", "properties": {"norad_id": 40294, "name": "GPS BIIF-8  (PRN 03)", "group": "gnss", "lat": -43.86852637617779, "lon": -0.457842963355934, "alt_km": 20279.85508520838, "timestamp": "2025-12-06T09:34:17.156631+00:00", "meta": {"OBJECT_NAME": "GPS BIIF-8  (PRN 03)", "OBJECT_ID": "2014-068A", "EPOCH": "2025-12-03T11:38:05.638272", "MEAN_MOTION": 2.00564094, "ECCENTRICITY": 0.00608191, "INCLINATION": 56.851, "RA_OF_ASC_NODE": 38.5042, "ARG_OF_PERICENTER": 69.3788, "MEAN_ANOMALY": 291.3251, "EPHEMERIS_TYPE": 0, "CLASSIFICATION_TYPE": "U", "NORAD_CAT_ID": 40294, "ELEMENT_SET_NO": 999, "REV_AT_EPOCH": 8128, "BSTAR": 0, "MEAN_MOTION_DOT": -6.5e-07, "MEAN_MOTION_DDOT": 0}, "tle": {"line1": "1 40294U 14068A   25337.48478748 -.00000065  00000+0  00000+0 0  9998", "line2": "2 40294  56.8510  38.5042 0060819  69.3788 291.3251  2.00564094 81285"}}, "geometry": {"type": "Point", "coordinates": [-0.457842963355934, -43.86852637617779]}}]}